GPS BIII-7  (PRN 01)    
1 62339U 24242A   26180.81572751 -.00000094  00000+0  00000+0 0  9992
2 62339  54.8437 333.6698 0017626   4.4449   3.3802  2.00572141 11517
GPS BIII-8  (PRN 21)    
1 64202U 25116A   26186.28378066 -.00000058  00000+0  00000+0 0  9994
2 64202  55.2485  30.4032 0008335 339.8111 199.4440  2.00574675  8232
GPS BIII-9  (PRN 20)    
1 67588U 26017A   26186.64411134 -.00000012  00000+0  00000+0 0  9999
2 67588  55.0996  88.0146 0021590 259.3425 100.4552  2.00570764431987
GPS BIII-10 (PRN 13)    
1 68791U 26087A   26186.85772806  .00000090  00000+0  00000+0 0  9997
2 68791  54.9625 207.0496 0020603 106.7291 252.9529  2.00571896  1204
COSMOS 2584 (704K)      
1 63130U 25042A   26185.50280755 -.00000010  00000+0  00000+0 0  9990
2 63130  65.0947  72.2135 0006059 222.1818 137.8396  2.13103855 10411
COSMOS 2596 (708K)      
1 65590U 25206B   26185.11455839 -.00000045  00000+0  00000+0 0  9996
2 65590  64.6242 314.3970 0011142 309.2417 229.0730  2.13100941  6272
GSAT0225 (GALILEO 29)   
1 59598U 24079A   26184.54964566 -.00000005  00000+0  00000+0 0  9998
2 59598  55.1282 100.6235 0001116 300.3188 247.3737  1.70474096 13599
GSAT0227 (GALILEO 30)   
1 59600U 24079C   26186.77363131  .00000000  00000+0  00000+0 0  9994
2 59600  55.1254 100.5592 0002501  60.6722 299.3723  1.70473940 13685
GSAT0232 (GALILEO 32)   
1 61182U 24167A   26185.24867122  .00000074  00000+0  00000+0 0  9991
2 61182  55.1817 220.8459 0006281 229.1002 130.6534  1.70474324 11163
GSAT0226 (GALILEO 31)   
1 61183U 24167B   26186.86006807  .00000076  00000+0  00000+0 0  9998
2 61183  55.1798 220.8085 0003111 233.2309 126.8093  1.70474137 11172
GSAT0233 (GALILEO 33)   
1 67160U 25302A   26186.40533022  .00000000  00000+0  00000+0 0  9992
2 67160  54.3445 101.6128 0000883 184.8795 352.5837  1.70474055  3433
GSAT0234 (GALILEO 34)   
1 67162U 25302C   26184.94180101 -.00000003  00000+0  00000+0 0  9991
2 67162  54.3462 101.6534 0002335 315.3055 224.0559  1.70474143  3464
BEIDOU-3 M25 (C47)      
1 61186U 24168B   26186.73220918 -.00000060  00000+0  00000+0 0  9993
2 61186  54.4561 301.5989 0003274 293.8207  77.6374  1.86230136 12132
BEIDOU-3 M27 (C49)      
1 61187U 24168C   26185.97724236 -.00000059  00000+0  00000+0 0  9999
2 61187  54.4521 301.6079 0001099  47.0603 313.2643  1.86230248  9590
QZS-6 (QZSS/PRN 200)    
1 62876U 25023A   26187.09366278 -.00000219  00000+0  00000+0 0  9997
2 62876   0.0359 290.1372 0001967 191.9070 286.2799  1.00270218  5135
